#aV2008 12  3  0  0   .00000000      96 DD+AD WGS84 FIT  NGA
## 1508 259200.00000000   900.00000000 54803  .0000000000000
+   31     2  3  4  5  6  7  8  9 10 11 12 13 14 15 16 17 18
+         19 20 21 22 23 24 25 26 27 28 29 30 31 32  0  0  0
+          0  0  0  0  0  0  0  0  0  0  0  0  0  0  0  0  0
+          0  0  0  0  0  0  0  0  0  0  0  0  0  0  0  0  0
+          0  0  0  0  0  0  0  0  0  0  0  0  0  0  0  0  0
++         0  0  0  0  0  0  0  0  0  0  0  0  0  0  0  0  0
++         0  0  0  0  0  0  0  0  0  0  0  0  0  0  0  0  0
++         0  0  0  0  0  0  0  0  0  0  0  0  0  0  0  0  0
++         0  0  0  0  0  0  0  0  0  0  0  0  0  0  0  0  0
++         0  0  0  0  0  0  0  0  0  0  0  0  0  0  0  0  0
%c cc cc ccc ccc cccc cccc cccc cccc ccccc ccccc ccccc ccccc
%c cc cc ccc ccc cccc cccc cccc cccc ccccc ccccc ccccc ccccc
%f  0.0000000  0.000000000  0.00000000000  0.000000000000000
%f  0.0000000  0.000000000  0.00000000000  0.000000000000000
%i    0    0    0    0      0      0      0      0         0
%i    0    0    0    0      0      0      0      0         0
/*      NGA, ST. LOUIS,MO.                                  
/*   EPHEMERIS COMPUTED FROM  3 DAYS OF DATA                
/* CCCCCCCCCCCCCCCCCCCCCCCCCCCCCCCCCCCCCCCCCCCCCCCCCCCCCCCCC
/* CCCCCCCCCCCCCCCCCCCCCCCCCCCCCCCCCCCCCCCCCCCCCCCCCCCCCCCCC
*  2008 12  3 12 45   .00000000                                                 
P  2 -22491.803866  12487.638746  -5862.335507    169.294861                    
V  2   3541.084218  -7399.264698 -30384.786135      -.023165                    
P  3  12954.362031 -10732.067748  20190.347043    319.635152                    
V  3   7782.256399  25379.974635   8729.123421       .052498                    
P  4 -20919.054962    752.439185 -16679.864882   -252.413224                    
V  4  15388.774468 -14220.700547 -19715.031668      -.125405                    
P  5   2166.190275  16512.378320 -21008.403550   -397.045787                    
V  5 -25157.784252  -6754.286450  -7894.370710       .067384                    
P  6  14951.998763  -5972.103360  21308.039237    130.668132                    
V  6   5268.213836  26217.142623   3698.035651      -.086314                    
P  7  -3398.695930 -15808.592095  21030.726280     23.475909                    
V  7  21581.427112 -15839.442556  -8515.424652       .001301                    
P  8 -15483.114110  -6006.726982  20784.846601   -180.545125                    
V  8  21397.991267 -15366.126123  10980.447868      -.016726                    
P  9 -11593.544052  20716.170599 -12429.665598     27.863033                    
V  9 -12563.005383   8045.925900  26617.760981       .019649                    
P 10 -19967.357741   4287.366834  17018.141034     -7.893319                    
V 10 -19319.962508 -10124.868839 -19619.278883      -.004166                    
P 11   7581.871013 -22789.583346 -11147.085598     14.153930                    
V 11  12584.801844  -7918.115466  25524.993590      -.009716                    
P 12  -3100.797528  14937.857667 -21677.079768   -336.513256                    
V 12 -25700.121661 -10261.056727  -3289.234839       .026885                    
P 13  -4791.437673 -25809.255240   3941.183953    279.669309                    
V 13   1256.035296  -5259.480067 -31982.095390       .014649                    
P 14  14171.787215  10561.801811 -19745.276821   -186.709064                    
V 14   1792.354856  25173.082068  14554.447557       .049405                    
P 15  -7787.502585  20296.290180  15270.027922   -220.794779                    
V 15  -5000.883527 -18815.851677  22539.810303      -.060394                    
P 16  23393.205370    405.906715  12832.650921     91.401201                    
V 16  14030.859783   8149.427795 -25742.693669      -.024544                    
P 17 -14422.668199 -13069.745324 -18108.508351     41.424095                    
V 17  -1351.617783 -23031.622580  17478.307144       .006120                    
P 18  16718.752864  17062.675659  12197.785087   -106.775830                    
V 18 -14746.394681  -3902.328272  25759.529413       .038203                    
P 19   8484.610252 -20843.638129  13998.165715     35.196897                    
V 19   3566.999143  17561.901471  24313.276712      -.002274                    
P 20   -493.181681 -16427.985785 -20989.004692     97.409698                    
V 20  24967.987113   8711.427853  -7402.173324      -.010057                    
P 21   9175.794791  12948.102485  21505.390359     39.976106                    
V 21 -21787.308261  15802.512600   -839.543250      -.015893                    
P 22  23851.498814  11712.454046   1193.734527    208.526690                    
V 22  -2577.664582   2490.343430  31265.344546      -.003345                    
P 23    152.631474 -25893.841848  -5272.862669    381.731822                    
V 23   3514.875822   6264.661938 -31206.205335       .010497                    
P 24  -6897.215243  19540.501688  16911.162390    146.095586                    
V 24 -18296.068994  10689.420350 -19711.997508       .032761                    
P 25   2718.591282 -19683.436497  18069.220737     71.976582                    
V 25  16993.837081 -14257.161034 -18280.631498       .292952                    
P 26 -10903.847905  14587.303155  18623.010206     22.252969                    
V 26  -3535.256381 -24613.995601  17272.357180       .042034                    
P 27 -10349.810368 -11253.492057  22411.193921      4.949209                    
V 27  20131.316899 -17660.708912    331.615976       .031369                    
P 28 -23263.921770 -12830.516931   3461.893837    -23.702061                    
V 28   4470.334323   -582.522217  31237.519639      -.001633                    
P 29   4917.357331  25993.414644   2693.078924    -26.922205                    
V 29  -2409.591660   3594.555477 -31455.148629       .020405                    
P 30  11270.337131  17141.236396 -17275.131843    111.444468                    
V 30 -20596.710618  -5490.092436 -19207.569540       .022512                    
P 31  21543.728806  -3934.256341 -14894.068726    -41.759781                    
V 31 -14003.178320  13293.589387 -23325.536400      -.017481                    
P 32   8062.013098 -12573.460367 -21532.453219    311.546198                    
V 32  25157.011335  13072.562711   1963.162225      -.016800                    
EOF
